CCSDS_OMM_VERS = 2.0
CREATION_DATE  = 
ORIGINATOR     = 

OBJECT_NAME    = STARLINK-35877
OBJECT_ID      = 2025-294V
CENTER_NAME    = EARTH
REF_FRAME      = TEME
TIME_SYSTEM    = UTC
MEAN_ELEMENT_THEORY = SGP/SGP4

EPOCH          = 2025-12-23T22:00:01.999584
MEAN_MOTION    = 15.76559755
ECCENTRICITY   = .00016826
INCLINATION    = 43.0006
RA_OF_ASC_NODE = 113.6778
ARG_OF_PERICENTER = 275.9085
MEAN_ANOMALY   = 37.0859

EPHEMERIS_TYPE = 0
CLASSIFICATION_TYPE = U
NORAD_CAT_ID   = 67049
ELEMENT_SET_NO = 999
REV_AT_EPOCH   = 210
BSTAR          = -.13507617E-1
MEAN_MOTION_DOT = -.1927073E-1
MEAN_MOTION_DDOT = 0

CCSDS_OMM_VERS = 2.0
CREATION_DATE  = 
ORIGINATOR     = 

OBJECT_NAME    = STARLINK-36078
OBJECT_ID      = 2025-294W
CENTER_NAME    = EARTH
REF_FRAME      = TEME
TIME_SYSTEM    = UTC
MEAN_ELEMENT_THEORY = SGP/SGP4

EPOCH          = 2025-12-23T22:00:01.999584
MEAN_MOTION    = 15.76537096
ECCENTRICITY   = .00015717
INCLINATION    = 43.0003
RA_OF_ASC_NODE = 113.6717
ARG_OF_PERICENTER = 276.4918
MEAN_ANOMALY   = 38.8390

EPHEMERIS_TYPE = 0
CLASSIFICATION_TYPE = U
NORAD_CAT_ID   = 67050
ELEMENT_SET_NO = 999
REV_AT_EPOCH   = 202
BSTAR          = -.13487026E-1
MEAN_MOTION_DOT = -.1922737E-1
MEAN_MOTION_DDOT = 0

CCSDS_OMM_VERS = 2.0
CREATION_DATE  = 
ORIGINATOR     = 

OBJECT_NAME    = STARLINK-35706
OBJECT_ID      = 2025-294X
CENTER_NAME    = EARTH
REF_FRAME      = TEME
TIME_SYSTEM    = UTC
MEAN_ELEMENT_THEORY = SGP/SGP4

EPOCH          = 2025-12-23T22:00:01.999584
MEAN_MOTION    = 15.76519990
ECCENTRICITY   = .00016465
INCLINATION    = 43.0005
RA_OF_ASC_NODE = 113.6658
ARG_OF_PERICENTER = 275.9019
MEAN_ANOMALY   = 41.7500

EPHEMERIS_TYPE = 0
CLASSIFICATION_TYPE = U
NORAD_CAT_ID   = 67051
ELEMENT_SET_NO = 999
REV_AT_EPOCH   = 210
BSTAR          = -.13516504E-1
MEAN_MOTION_DOT = -.1925162E-1
MEAN_MOTION_DDOT = 0

CCSDS_OMM_VERS = 2.0
CREATION_DATE  = 
ORIGINATOR     = 

OBJECT_NAME    = STARLINK-35720
OBJECT_ID      = 2025-294Y
CENTER_NAME    = EARTH
REF_FRAME      = TEME
TIME_SYSTEM    = UTC
MEAN_ELEMENT_THEORY = SGP/SGP4

EPOCH          = 2025-12-23T22:00:01.999584
MEAN_MOTION    = 15.76518491
ECCENTRICITY   = .00017016
INCLINATION    = 43.0004
RA_OF_ASC_NODE = 113.6609
ARG_OF_PERICENTER = 278.3984
MEAN_ANOMALY   = 41.2383

EPHEMERIS_TYPE = 0
CLASSIFICATION_TYPE = U
NORAD_CAT_ID   = 67052
ELEMENT_SET_NO = 999
REV_AT_EPOCH   = 209
BSTAR          = -.13524506E-1
MEAN_MOTION_DOT = -.1926088E-1
MEAN_MOTION_DDOT = 0

CCSDS_OMM_VERS = 2.0
CREATION_DATE  = 
ORIGINATOR     = 

OBJECT_NAME    = STARLINK-35739
OBJECT_ID      = 2025-294Z
CENTER_NAME    = EARTH
REF_FRAME      = TEME
TIME_SYSTEM    = UTC
MEAN_ELEMENT_THEORY = SGP/SGP4

EPOCH          = 2025-12-23T22:00:01.999584
MEAN_MOTION    = 15.76503146
ECCENTRICITY   = .00017011
INCLINATION    = 43.0005
RA_OF_ASC_NODE = 113.6552
ARG_OF_PERICENTER = 277.6717
MEAN_ANOMALY   = 44.1559

EPHEMERIS_TYPE = 0
CLASSIFICATION_TYPE = U
NORAD_CAT_ID   = 67053
ELEMENT_SET_NO = 999
REV_AT_EPOCH   = 175
BSTAR          = -.13498685E-1
MEAN_MOTION_DOT = -.1921765E-1
MEAN_MOTION_DDOT = 0

CCSDS_OMM_VERS = 2.0
CREATION_DATE  = 
ORIGINATOR     = 

OBJECT_NAME    = STARLINK-35754
OBJECT_ID      = 2025-294AA
CENTER_NAME    = EARTH
REF_FRAME      = TEME
TIME_SYSTEM    = UTC
MEAN_ELEMENT_THEORY = SGP/SGP4

EPOCH          = 2025-12-23T22:00:01.999584
MEAN_MOTION    = 15.76485124
ECCENTRICITY   = .00015825
INCLINATION    = 43.0003
RA_OF_ASC_NODE = 113.6493
ARG_OF_PERICENTER = 276.9845
MEAN_ANOMALY   = 47.2013

EPHEMERIS_TYPE = 0
CLASSIFICATION_TYPE = U
NORAD_CAT_ID   = 67054
ELEMENT_SET_NO = 999
REV_AT_EPOCH   = 191
BSTAR          = -.13542323E-1
MEAN_MOTION_DOT = -.1925671E-1
MEAN_MOTION_DDOT = 0

CCSDS_OMM_VERS = 2.0
CREATION_DATE  = 
ORIGINATOR     = 

OBJECT_NAME    = STARLINK-35790
OBJECT_ID      = 2025-294AB
CENTER_NAME    = EARTH
REF_FRAME      = TEME
TIME_SYSTEM    = UTC
MEAN_ELEMENT_THEORY = SGP/SGP4

EPOCH          = 2025-12-23T22:00:01.999584
MEAN_MOTION    = 15.76467534
ECCENTRICITY   = .00015075
INCLINATION    = 43.0003
RA_OF_ASC_NODE = 113.6430
ARG_OF_PERICENTER = 276.2615
MEAN_ANOMALY   = 50.2064

EPHEMERIS_TYPE = 0
CLASSIFICATION_TYPE = U
NORAD_CAT_ID   = 67055
ELEMENT_SET_NO = 999
REV_AT_EPOCH   = 210
BSTAR          = -.13535775E-1
MEAN_MOTION_DOT = -.1923482E-1
MEAN_MOTION_DDOT = 0

CCSDS_OMM_VERS = 2.0
CREATION_DATE  = 
ORIGINATOR     = 

OBJECT_NAME    = STARLINK-36143
OBJECT_ID      = 2025-294AC
CENTER_NAME    = EARTH
REF_FRAME      = TEME
TIME_SYSTEM    = UTC
MEAN_ELEMENT_THEORY = SGP/SGP4

EPOCH          = 2025-12-23T22:00:01.999584
MEAN_MOTION    = 15.76452445
ECCENTRICITY   = .00016634
INCLINATION    = 43.0002
RA_OF_ASC_NODE = 113.6274
ARG_OF_PERICENTER = 282.7638
MEAN_ANOMALY   = 49.8255

EPHEMERIS_TYPE = 0
CLASSIFICATION_TYPE = U
NORAD_CAT_ID   = 67056
ELEMENT_SET_NO = 999
REV_AT_EPOCH   = 210
BSTAR          = -.13559596E-1
MEAN_MOTION_DOT = -.1925431E-1
MEAN_MOTION_DDOT = 0

CCSDS_OMM_VERS = 2.0
CREATION_DATE  = 
ORIGINATOR     = 

OBJECT_NAME    = STARLINK-36141
OBJECT_ID      = 2025-294AD
CENTER_NAME    = EARTH
REF_FRAME      = TEME
TIME_SYSTEM    = UTC
MEAN_ELEMENT_THEORY = SGP/SGP4

EPOCH          = 2025-12-23T22:00:01.999584
MEAN_MOTION    = 15.76461501
ECCENTRICITY   = .00017234
INCLINATION    = 43.0001
RA_OF_ASC_NODE = 113.6331
ARG_OF_PERICENTER = 279.6155
MEAN_ANOMALY   = 50.8672

EPHEMERIS_TYPE = 0
CLASSIFICATION_TYPE = U
NORAD_CAT_ID   = 67057
ELEMENT_SET_NO = 999
REV_AT_EPOCH   = 202
BSTAR          = -.13558697E-1
MEAN_MOTION_DOT = -.1926055E-1
MEAN_MOTION_DDOT = 0

CCSDS_OMM_VERS = 2.0
CREATION_DATE  = 
ORIGINATOR     = 

OBJECT_NAME    = STARLINK-35767
OBJECT_ID      = 2025-294AE
CENTER_NAME    = EARTH
REF_FRAME      = TEME
TIME_SYSTEM    = UTC
MEAN_ELEMENT_THEORY = SGP/SGP4

EPOCH          = 2025-12-23T22:00:01.999584
MEAN_MOTION    = 15.76467693
ECCENTRICITY   = .00017165
INCLINATION    = 43.0004
RA_OF_ASC_NODE = 113.6380
ARG_OF_PERICENTER = 277.6255
MEAN_ANOMALY   = 50.8849

EPHEMERIS_TYPE = 0
CLASSIFICATION_TYPE = U
NORAD_CAT_ID   = 67058
ELEMENT_SET_NO = 999
REV_AT_EPOCH   = 191
BSTAR          = -.13588471E-1
MEAN_MOTION_DOT = -.1930163E-1
MEAN_MOTION_DDOT = 0

CCSDS_OMM_VERS = 2.0
CREATION_DATE  = 
ORIGINATOR     = 

OBJECT_NAME    = HULIANWANG DIGUI-119
OBJECT_ID      = 2025-295A
CENTER_NAME    = EARTH
REF_FRAME      = TEME
TIME_SYSTEM    = UTC
MEAN_ELEMENT_THEORY = SGP/SGP4

EPOCH          = 2025-12-23T22:08:00.737664
MEAN_MOTION    = 14.24616037
ECCENTRICITY   = .0014027
INCLINATION    = 50.0051
RA_OF_ASC_NODE = 325.0656
ARG_OF_PERICENTER = 285.8158
MEAN_ANOMALY   = 74.1209

EPHEMERIS_TYPE = 0
CLASSIFICATION_TYPE = U
NORAD_CAT_ID   = 67059
ELEMENT_SET_NO = 999
REV_AT_EPOCH   = 171
BSTAR          = .74106467E-4
MEAN_MOTION_DOT = .14E-6
MEAN_MOTION_DDOT = 0

CCSDS_OMM_VERS = 2.0
CREATION_DATE  = 
ORIGINATOR     = 

OBJECT_NAME    = HULIANWANG DIGUI-120
OBJECT_ID      = 2025-295B
CENTER_NAME    = EARTH
REF_FRAME      = TEME
TIME_SYSTEM    = UTC
MEAN_ELEMENT_THEORY = SGP/SGP4

EPOCH          = 2025-12-23T18:39:46.505376
MEAN_MOTION    = 14.25711377
ECCENTRICITY   = .0013178
INCLINATION    = 50.0058
RA_OF_ASC_NODE = 325.6343
ARG_OF_PERICENTER = 286.4479
MEAN_ANOMALY   = 73.4987

EPHEMERIS_TYPE = 0
CLASSIFICATION_TYPE = U
NORAD_CAT_ID   = 67060
ELEMENT_SET_NO = 999
REV_AT_EPOCH   = 169
BSTAR          = .67209387E-4
MEAN_MOTION_DOT = .1E-7
MEAN_MOTION_DDOT = 0

