STARLINK-35877          
1 67049U 25294V   25357.91668981 -.01927073  00000+0 -13508-1 0  9996
2 67049  43.0006 113.6778 0001682 275.9085  37.0859 15.76559755  2107
STARLINK-36078          
1 67050U 25294W   25357.91668981 -.01922737  00000+0 -13487-1 0  9996
2 67050  43.0003 113.6717 0001571 276.4918  38.8390 15.76537096  2021
STARLINK-35706          
1 67051U 25294X   25357.91668981 -.01925162  00000+0 -13517-1 0  9996
2 67051  43.0005 113.6658 0001646 275.9019  41.7500 15.76519990  2105
STARLINK-35720          
1 67052U 25294Y   25357.91668981 -.01926088  00000+0 -13525-1 0  9994
2 67052  43.0004 113.6609 0001701 278.3984  41.2383 15.76518491  2098
STARLINK-35739          
1 67053U 25294Z   25357.91668981 -.01921765  00000+0 -13499-1 0  9992
2 67053  43.0005 113.6552 0001701 277.6717  44.1559 15.76503146  1753
STARLINK-35754          
1 67054U 25294AA  25357.91668981 -.01925671  00000+0 -13542-1 0  9992
2 67054  43.0003 113.6493 0001582 276.9845  47.2013 15.76485124  1919
STARLINK-35790          
1 67055U 25294AB  25357.91668981 -.01923482  00000+0 -13536-1 0  9994
2 67055  43.0003 113.6430 0001507 276.2615  50.2064 15.76467534  2103
STARLINK-36143          
1 67056U 25294AC  25357.91668981 -.01925431  00000+0 -13560-1 0  9998
2 67056  43.0002 113.6274 0001663 282.7638  49.8255 15.76452445  2100
STARLINK-36141          
1 67057U 25294AD  25357.91668981 -.01926055  00000+0 -13559-1 0  9990
2 67057  43.0001 113.6331 0001723 279.6155  50.8672 15.76461501  2029
STARLINK-35767          
1 67058U 25294AE  25357.91668981 -.01930163  00000+0 -13588-1 0  9998
2 67058  43.0004 113.6380 0001716 277.6255  50.8849 15.76467693  1919
HULIANWANG DIGUI-119    
1 67059U 25295A   25357.92223076  .00000014  00000+0  74106-4 0  9999
2 67059  50.0051 325.0656 0014027 285.8158  74.1209 14.24616037  1714
HULIANWANG DIGUI-120    
1 67060U 25295B   25357.77762159  .00000001  00000+0  67209-4 0  9996
2 67060  50.0058 325.6343 0013178 286.4479  73.4987 14.25711377  1697
